EHEH 030855Z AUTO 10003KT 040V150 9999 OVC340 20/15 Q1028 BLU NOSIG
EHEH 031225Z AUTO 06003KT 9999 OVC260 23/13 Q1028 BLU NOSIG
EHEH 031555Z AUTO 05007KT 010V080 9999 SCT320 BKN390 23/14 Q1028 BLU NOSIG
EHEH 090655Z AUTO VRB02KT 0100 R21/0100N FG OVC000 17/17 Q1016 RED TEMPO 0100 FG BKN001 BECMG 1200 BR RMK LVP DELTA
EHLE 090755Z AUTO 25004KT 0150 R23/1300N BR VV000 20/20 Q1016 BECMG 4000 BR
EHGG 100725Z AUTO VRB02KT 5000 NSC 19/17 Q1018 BECMG CAVOK
EHEH 090513Z AUTO VRB02KT 0150 R21/0750D FG BKN000 FEW015CB 15/15 Q1016 RED TEMPO 0100 FG RMK LVP CHARLIE
EHEH 141125Z AUTO VRB01KT 9999 SCT032 BKN042 BKN046 20/12 Q1022 BLU NOSIG
EHEH 050925Z AUTO 01007KT 310V040 0750 R03/1100N FG BKN001 OVC002 03/03 Q1001 RED TEMPO 0600 FG VV001 RMK LVP BRAVO

EHAM 090725Z VRB02KT 1000 R18C/1800N R27/P2000N R18R/0900U R06/0200N BCFG BR NSC 19/19 Q1016 BECMG 5000 BR
EHAM 070755Z 15007KT 0350 R18C/0650N R27/0500N R18R/0550N R06/0550N FZFG -SG VV001 M01/M01 Q1019 NOSIG
EHAM 070725Z 17007KT 130V190 0400 R18C/0800D R27/0700N R18R/0600N R06/0600N FZFG -SG VV001 M01/M01 Q1019 TEMPO 0300